METHANESAT              
1 59101U 24043D   26124.10842668  .00003528  00000+0  30411-3 0  9998
2 59101  97.8387 254.9553 0011508 149.8173 210.3714 14.97922902118059
GOSAT-GW (IBUKI GW)     
1 64694U 25141A   26124.14493793 -.00000973  00000+0 -16318-3 0  9999
2 64694  98.0562  62.1822 0001382  82.1214 278.0147 14.67556151 45384
GHGSAT-C1               
1 46278U 20061G   26124.17877830  .00034417  00000+0  30766-3 0  9995
2 46278  97.2111 207.9614 0002136 158.9825 201.1525 15.68313017316572
GHGSAT-C12              
1 64529U 25135B   26124.14482609  .00003497  00000+0  16555-3 0  9998
2 64529  97.4698 239.3635 0004194 344.9706  15.1404 15.19999370 48137
GHGSAT-C13              
1 64548U 25135W   26124.10437877  .00003296  00000+0  15329-3 0  9997
2 64548  97.4727 239.8243 0000410 121.5752 238.5523 15.20661589 48153
GHGSAT-C2               
1 47509U 21006DA  26124.08890144  .00006542  00000+0  18130-3 0  9995
2 47509  97.2181 172.1112 0004226 346.5806  13.5326 15.37279076293074
GHGSAT-C3               
1 52737U 22057F   26124.14464995  .00007294  00000+0  22568-3 0  9994
2 52737  97.6542 268.1855 0004728 277.5870  82.4834 15.33797914218785
GHGSAT-C4               
1 52746U 22057Q   26124.16477355  .00007310  00000+0  22625-3 0  9993
2 52746  97.6469 267.0823 0005018 258.6657 101.4021 15.33783082218794
GHGSAT-C5               
1 52744U 22057N   26124.18294691  .00006968  00000+0  21584-3 0  9994
2 52744  97.6631 269.7485 0005405 274.1141  85.9483 15.33774517218798
GHGSAT-C6               
1 56204U 23054AC  26124.16191705  .00015984  00000+0  27010-3 0  9995
2 56204  97.3072  33.3156 0006385 175.3557 184.7756 15.51669954171629
GHGSAT-C7               
1 56209U 23054AH  26124.21529365  .00011703  00000+0  21798-3 0  9995
2 56209  97.3040  32.0543 0007485 178.6576 181.4697 15.48968073171587
GHGSAT-C8               
1 56186U 23054J   26124.19688845  .00015160  00000+0  25617-3 0  9990
2 56186  97.3014  32.7068 0003428 193.4166 166.6996 15.51698275171613
SENTINEL-5P             
1 42969U 17064A   26124.07752128  .00000062  00000+0  50260-4 0  9999
2 42969  98.7948  66.5273 0001226  79.4489 280.6825 14.19511412443302
ENMAP                   
1 52159U 22033C   26124.20573775  .00000648  00000+0  10386-3 0  9991
2 52159  97.9791 207.0794 0001484  85.8381 274.2997 14.74951565220174
PRISMA                  
1 44072U 19015A   26124.16898980  .00001170  00000+0  14804-3 0  9995
2 44072  97.8653 199.5928 0001218  87.3041 272.8312 14.83677043385526
SENTINEL-2A             
1 40697U 15028A   26124.15871927  .00000052  00000+0  36622-4 0  9996
2 40697  98.5622 199.6343 0001233  85.8995 274.2329 14.30826153567435
SENTINEL-2B             
1 42063U 17013A   26124.15153252 -.00000005  00000+0  14912-4 0  9992
2 42063  98.5649 199.5462 0001221  90.4499 269.6824 14.30816609478346
SENTINEL-2C             
1 60989U 24157A   26124.18654538  .00000109  00000+0  58072-4 0  9991
2 60989  98.5628 199.5909 0001514  97.7040 262.4315 14.30818889 86694
LANDSAT 8               
1 39084U 13008A   26124.14504442  .00000322  00000+0  81509-4 0  9998
2 39084  98.1845 194.9349 0001270 103.2135 256.9205 14.57137945691488
LANDSAT 9               
1 49260U 21088A   26124.17955296  .00000321  00000+0  81121-4 0  9991
2 49260  98.1865 195.0442 0001337 106.3286 253.8059 14.57126805244590
TANAGER-1               
1 60507U 24149AR  26123.72100851  .00005114  00000+0  11239-3 0  9995
2 60507  97.3324 217.7801 0006773 102.3567 257.8440 15.44449039 96177
